OBJECT_NAME,OBJECT_ID,EPOCH,MEAN_MOTION,ECCENTRICITY,INCLINATION,RA_OF_ASC_NODE,ARG_OF_PERICENTER,MEAN_ANOMALY,EPHEMERIS_TYPE,CLASSIFICATION_TYPE,NORAD_CAT_ID,ELEMENT_SET_NO,REV_AT_EPOCH,BSTAR,MEAN_MOTION_DOT,MEAN_MOTION_DDOT
SES-2,2011-049A,2026-07-13T19:53:42.054144,1.00270482,.0002672,0.1244,91.2142,22.2948,29.6119,0,U,37809,999,5423,0,-.201E-5,0
ARABSAT-5C,2011-049B,2026-07-13T19:46:38.790048,1.00270856,.0003517,0.0492,17.2305,111.1620,119.9471,0,U,37810,999,5430,0,.118E-5,0
EUTELSAT 7 WEST A,2011-051A,2026-07-13T20:16:22.772064,1.00270666,.0004556,0.0629,344.8366,142.6303,101.0175,0,U,37816,999,5414,0,-.66E-6,0
QUETZSAT 1,2011-054A,2026-07-13T19:56:34.277856,1.00271455,.0002547,0.0101,29.1751,92.7555,31.9234,0,U,37826,999,5014,0,-.247E-5,0
INTELSAT 18 (IS-18),2011-056A,2026-07-13T19:27:07.103232,1.00270355,.0001669,0.0148,340.6921,143.7844,278.9773,0,U,37834,999,5407,0,.48E-6,0
EUTELSAT 16A,2011-057A,2026-07-13T20:22:59.639232,1.00273341,.0005818,0.0390,16.3778,93.0002,144.0862,0,U,37836,999,760,0,.99E-6,0
VIASAT-1,2011-059A,2026-07-13T16:23:15.399168,1.00274890,.0002041,0.0242,45.7166,80.4360,296.1160,0,U,37843,999,4758,0,0,0
ASIASAT 7,2011-069A,2026-07-13T13:57:56.269728,1.00272720,.00012062,0.0149,47.6580,34.5800,164.2101,0,U,37933,999,4512,0,-.338E-5,0
BEIDOU-2 IGSO-5,2011-073A,2026-07-02T17:30:18.330912,1.00270596,.01145273,47.6496,271.3544,222.0502,141.5350,0,U,37948,999,5329,0,-.128E-5,0
LUCH-5A,2011-074B,2026-07-13T14:26:06.144864,1.00272911,.0002571,8.8185,73.4181,60.0568,181.5058,0,U,37951,999,5331,0,-.61E-6,0
NIGCOMSAT 1R,2011-077A,2026-07-13T20:24:38.486880,1.00270016,.0002615,0.0262,117.8908,230.4437,292.0315,0,U,38014,999,5322,0,.14E-5,0
WGS F4 (USA 233),2012-003A,2026-07-13T19:01:02.102016,1.00269893,.0000745,0.0279,53.8593,107.4416,144.0532,0,U,38070,999,4441,0,0,0
SES-4,2012-007A,2026-07-13T20:12:15.668064,1.00269856,.0002447,0.0196,62.4335,52.1244,98.2208,0,U,38087,999,5249,0,-.174E-5,0
BEIDOU-2 G5,2012-008A,2026-07-13T20:35:08.926080,1.00269804,.0007354,3.6368,69.5223,269.0439,320.6166,0,U,38091,999,5263,0,.49E-6,0
MUOS-1,2012-009A,2026-07-13T14:42:02.891808,1.00271886,.0056983,5.5284,47.1193,3.4003,1.5280,0,U,38093,999,5271,0,-.136E-5,0
INTELSAT 22 (IS-22),2012-011A,2026-07-13T21:00:56.528064,1.00272318,.0001857,0.0109,25.6204,95.5710,197.8820,0,U,38098,999,745,0,-.64E-6,0
APSTAR-7,2012-013A,2026-07-13T20:40:15.937248,1.00271068,.0002932,0.0158,82.6437,41.4714,194.1874,0,U,38107,999,5207,0,-.107E-5,0
YAHSAT 1B,2012-016A,2026-07-13T01:42:49.313376,1.00273295,.00034999,0.0884,88.7099,45.3416,230.2049,0,U,38245,999,4586,0,.124E-5,0
AEHF-2 (USA 235),2012-019A,2026-07-13T20:13:45.524064,1.00272341,.0002216,6.7102,57.2867,55.9352,105.4396,0,U,38254,999,725,0,-.145E-5,0
JCSAT-13,2012-023A,2026-07-13T19:11:08.634336,1.00273274,.0002717,0.0243,44.2892,80.0398,219.1509,0,U,38331,999,5180,0,0,0
VINASAT-2,2012-023B,2026-07-13T13:49:39.213120,1.00271094,.0002108,0.0130,0.7994,114.6059,155.3055,0,U,38332,999,4692,0,-.333E-5,0
NIMIQ 6,2012-026A,2026-07-13T11:19:14.192256,1.00271266,.00025244,0.0165,20.8877,93.4154,255.7494,0,U,38342,999,5067,0,-.177E-5,0
ZHONGXING-2A,2012-028A,2026-07-13T21:31:38.977824,1.00271062,.0001395,1.5203,83.5315,37.2264,232.1787,0,U,38352,999,5156,0,-.299E-5,0
INTELSAT 19 (IS-19),2012-030A,2026-07-13T19:23:07.484064,1.00269615,.0003185,0.0268,43.5457,87.0530,257.8712,0,U,38356,999,5071,0,0,0
ECHOSTAR 17,2012-035A,2026-07-13T07:29:52.916064,1.00271168,.0002068,0.0038,99.8957,10.3898,186.2739,0,U,38551,999,5132,0,-.78E-6,0
METEOSAT-10 (MSG-3),2012-035B,2026-07-13T20:18:30.070368,1.00270509,.0001102,4.7326,60.8867,16.8473,158.6585,0,U,38552,999,5112,0,-.16E-6,0
SES-5,2012-036A,2026-07-13T20:19:52.438080,1.00271574,.0001986,0.0475,317.9399,159.1053,124.6171,0,U,38652,999,4472,0,.28E-6,0
INTELSAT 20 (IS-20),2012-043A,2026-07-13T20:59:39.537024,1.00273663,.0001331,0.0108,61.9654,107.7091,145.4857,0,U,38740,999,5101,0,-.3E-6,0
HYLAS 2,2012-043B,2026-07-13T19:57:49.159008,1.00270768,.000237,2.4937,80.7427,57.1418,20.6943,0,U,38741,999,5104,0,-.265E-5,0
INTELSAT 21 (IS-21),2012-045A,2026-07-13T20:01:56.263008,1.00263547,.0001281,0.0574,255.5147,255.5025,23.1635,0,U,38749,999,5079,0,-.29E-5,0
ASTRA 2F,2012-051A,2026-07-13T20:42:38.746080,1.00268639,.0002837,0.0934,256.7189,287.5668,86.2830,0,U,38778,999,4140,0,.144E-5,0
GSAT-10,2012-051B,2026-07-13T21:15:38.641824,1.00276167,.0007516,0.0953,265.0407,189.7730,238.8326,0,U,38779,999,5036,0,-.171E-5,0
