SES-2                   
1 37809U 11049A   26194.82895896 -.00000201  00000+0  00000+0 0  9991
2 37809   0.1244  91.2142 0002672  22.2948  29.6119  1.00270482 54239
ARABSAT-5C              
1 37810U 11049B   26194.82406007  .00000118  00000+0  00000+0 0  9991
2 37810   0.0492  17.2305 0003517 111.1620 119.9471  1.00270856 54305
EUTELSAT 7 WEST A       
1 37816U 11051A   26194.84470801 -.00000066  00000+0  00000+0 0  9998
2 37816   0.0629 344.8366 0004556 142.6303 101.0175  1.00270666 54144
QUETZSAT 1              
1 37826U 11054A   26194.83095229 -.00000247  00000+0  00000+0 0  9999
2 37826   0.0101  29.1751 0002547  92.7555  31.9234  1.00271455 50143
INTELSAT 18 (IS-18)     
1 37834U 11056A   26194.81049888  .00000048  00000+0  00000+0 0  9996
2 37834   0.0148 340.6921 0001669 143.7844 278.9773  1.00270355 54070
EUTELSAT 16A            
1 37836U 11057A   26194.84930138  .00000099  00000+0  00000+0 0  9995
2 37836   0.0390  16.3778 0005818  93.0002 144.0862  1.00273341  7608
VIASAT-1                
1 37843U 11059A   26194.68281712  .00000000  00000+0  00000+0 0  9996
2 37843   0.0242  45.7166 0002041  80.4360 296.1160  1.00274890 47582
ASIASAT 7               
1 37933U 11069A   26194.58190127 -.00000338  00000+0  00000+0 0  9990
2 37933   0.0149  47.6580 0001206  34.5800 164.2101  1.00272720 45128
BEIDOU-2 IGSO-5         
1 37948U 11073A   26183.72937883 -.00000128  00000+0  00000+0 0  9990
2 37948  47.6496 271.3544 0114527 222.0502 141.5350  1.00270596 53296
LUCH-5A                 
1 37951U 11074B   26194.60146001 -.00000061  00000+0  00000+0 0  9994
2 37951   8.8185  73.4181 0002571  60.0568 181.5058  1.00272911 53314
NIGCOMSAT 1R            
1 38014U 11077A   26194.85044545  .00000140  00000+0  00000+0 0  9992
2 38014   0.0262 117.8908 0002615 230.4437 292.0315  1.00270016 53220
WGS F4 (USA 233)        
1 38070U 12003A   26194.79238544  .00000000  00000+0  00000+0 0  9996
2 38070   0.0279  53.8593 0000745 107.4416 144.0532  1.00269893 44410
SES-4                   
1 38087U 12007A   26194.84184801 -.00000174  00000+0  00000+0 0  9993
2 38087   0.0196  62.4335 0002447  52.1244  98.2208  1.00269856 52498
BEIDOU-2 G5             
1 38091U 12008A   26194.85774220  .00000049  00000+0  00000+0 0  9990
2 38091   3.6368  69.5223 0007354 269.0439 320.6166  1.00269804 52638
MUOS-1                  
1 38093U 12009A   26194.61253347 -.00000136  00000+0  00000+0 0  9997
2 38093   5.5284  47.1193 0056983   3.4003   1.5280  1.00271886 52719
INTELSAT 22 (IS-22)     
1 38098U 12011A   26194.87565426 -.00000064  00000+0  00000+0 0  9997
2 38098   0.0109  25.6204 0001857  95.5710 197.8820  1.00272318  7452
APSTAR-7                
1 38107U 12013A   26194.86129557 -.00000107  00000+0  00000+0 0  9998
2 38107   0.0158  82.6437 0002932  41.4714 194.1874  1.00271068 52075
YAHSAT 1B               
1 38245U 12016A   26194.07140409  .00000124  00000+0  00000+0 0  9994
2 38245   0.0884  88.7099 0003499  45.3416 230.2049  1.00273295 45865
AEHF-2 (USA 235)        
1 38254U 12019A   26194.84288801 -.00000145  00000+0  00000+0 0  9995
2 38254   6.7102  57.2867 0002216  55.9352 105.4396  1.00272341  7257
JCSAT-13                
1 38331U 12023A   26194.79940549  .00000000  00000+0  00000+0 0  9993
2 38331   0.0243  44.2892 0002717  80.0398 219.1509  1.00273274 51800
VINASAT-2               
1 38332U 12023B   26194.57614830 -.00000333  00000+0  00000+0 0  9991
2 38332   0.0130   0.7994 0002108 114.6059 155.3055  1.00271094 46920
NIMIQ 6                 
1 38342U 12026A   26194.47169204 -.00000177  00000+0  00000+0 0  9990
2 38342   0.0165  20.8877 0002524  93.4154 255.7494  1.00271266 50674
ZHONGXING-2A            
1 38352U 12028A   26194.89697891 -.00000299  00000+0  00000+0 0  9992
2 38352   1.5203  83.5315 0001395  37.2264 232.1787  1.00271062 51567
INTELSAT 19 (IS-19)     
1 38356U 12030A   26194.80772551  .00000000  00000+0  00000+0 0  9996
2 38356   0.0268  43.5457 0003185  87.0530 257.8712  1.00269615 50716
ECHOSTAR 17             
1 38551U 12035A   26194.31241801 -.00000078  00000+0  00000+0 0  9999
2 38551   0.0038  99.8957 0002068  10.3898 186.2739  1.00271168 51320
METEOSAT-10 (MSG-3)     
1 38552U 12035B   26194.84618137 -.00000016  00000+0  00000+0 0  9990
2 38552   4.7326  60.8867 0001102  16.8473 158.6585  1.00270509 51126
SES-5                   
1 38652U 12036A   26194.84713470  .00000028  00000+0  00000+0 0  9990
2 38652   0.0475 317.9399 0001986 159.1053 124.6171  1.00271574 44727
INTELSAT 20 (IS-20)     
1 38740U 12043A   26194.87476316 -.00000030  00000+0  00000+0 0  9998
2 38740   0.0108  61.9654 0001331 107.7091 145.4857  1.00273663 51016
HYLAS 2                 
1 38741U 12043B   26194.83181897 -.00000265  00000+0  00000+0 0  9992
2 38741   2.4937  80.7427 0002370  57.1418  20.6943  1.00270768 51041
INTELSAT 21 (IS-21)     
1 38749U 12045A   26194.83467897 -.00000290  00000+0  00000+0 0  9997
2 38749   0.0574 255.5147 0001281 255.5025  23.1635  1.00263547 50793
ASTRA 2F                
1 38778U 12051A   26194.86294845  .00000144  00000+0  00000+0 0  9997
2 38778   0.0934 256.7189 0002837 287.5668  86.2830  1.00268639 41402
GSAT-10                 
1 38779U 12051B   26194.88586391 -.00000171  00000+0  00000+0 0  9991
2 38779   0.0953 265.0407 0007516 189.7730 238.8326  1.00276167 50367
